COMMENT,ORIGINATOR,NORAD_CAT_ID,OBJECT_NAME,OBJECT_TYPE,CLASSIFICATION_TYPE,INTLDES,EPOCH,EPOCH_MICROSECONDS,MEAN_MOTION,ECCENTRICITY,INCLINATION,RA_OF_ASC_NODE,ARG_OF_PERICENTER,MEAN_ANOMALY,EPHEMERIS_TYPE,ELEMENT_SET_NO,REV_AT_EPOCH,BSTAR,MEAN_MOTION_DOT,MEAN_MOTION_DDOT,FILE,TLE_LINE0,TLE_LINE1,TLE_LINE2,OBJECT_ID,OBJECT_NUMBER,SEMIMAJOR_AXIS,PERIOD,APOGEE,PERIGEE
"GENERATED VIA SPACETRACK.ORG API","JSPOC","10677","SL-8 R/B","ROCKET BODY","U","78019B","2016-01-09 22:17:22","995168","14.39932364","0.0014728","74.036","189.9586","29.5829","330.6156","0","999","98676","6.2752e-05","1.71e-06","0","1978726","0 SL-8 R/B","1 10677U 78019B   16009.92873837 +.00000171 +00000-0 +62752-4 0  9994","2 10677 074.0360 189.9586 0014728 029.5829 330.6156 14.39932364986760","1978-019B","10677","7136.858","100.004","769.235","748.212"
"GENERATED VIA SPACETRACK.ORG API","JSPOC","6207","SL-8 R/B","ROCKET BODY","U","72074B","2016-01-09 22:17:32","626176","13.75573958","0.002063","65.8234","138.4199","354.321","140.9381","0","999","17235","2.4234e-06","-7.8e-07","0","1978726","0 SL-8 R/B","1  6207U 72074B   16009.92884984 -.00000078 +00000-0 +24234-5 0  9999","2  6207 065.8234 138.4199 0020630 354.3210 140.9381 13.75573958172356","1972-074B","6207","7357.764","104.683","994.808","964.450"
"GENERATED VIA SPACETRACK.ORG API","JSPOC","9903","METEOR 1-27","PAYLOAD","U","77024A","2016-01-09 22:17:32","30880","14.08221501","0.0037121","81.254","230.1648","328.64","31.2555","0","999","99108","0.00014823","2.67e-06","0","1978726","0 METEOR 1-27","1  9903U 77024A   16009.92884295 +.00000267 +00000-0 +14823-3 0  9990","2  9903 081.2540 230.1648 0037121 328.6400 031.2555 14.08221501991086","1977-024A","9903","7243.601","102.256","892.355","838.577"
"GENERATED VIA SPACETRACK.ORG API","JSPOC","21016","RADUGA 26","PAYLOAD","U","90112A","2016-01-09 22:17:33","318240","1.00300246","0.0001113","14.9018","11.6737","343.6713","144.6969","0","999","9204","0","4.5e-07","0","1979034","0 RADUGA 26","1 21016U 90112A   16009.92885785 +.00000045 +00000-0 +00000-0 0  9990","2 21016 014.9018 011.6737 0001113 343.6713 144.6969 01.00300246092043","1990-112A","21016","42156.755","1435.689","35783.312","35773.928"
"GENERATED VIA SPACETRACK.ORG API","JSPOC","13916","COSMOS 1447","PAYLOAD","U","83021A","2016-01-09 22:17:47","353056","13.75026178","0.0038546","82.9473","302.3127","28.133","39.6945","0","999","64526","4.7868e-05","6.1e-07","0","1978726","0 COSMOS 1447","1 13916U 83021A   16009.92902029 +.00000061 +00000-0 +47868-4 0  9997","2 13916 082.9473 302.3127 0038546 028.1330 039.6945 13.75026178645265","1983-021A","13916","7359.718","104.725","1009.952","953.214"
"GENERATED VIA SPACETRACK.ORG API","JSPOC","5709","INTELSAT 4-F3","PAYLOAD","U","71116A","2016-01-09 22:17:49","527744","0.9961767","0.0009612","13.9861","332.5253","353.7258","169.4917","0","999","8090","0","1.11e-06","0","1978726","0 INTELSAT 4-F3","1  5709U 71116A   16009.92904546 +.00000111 +00000-0 +00000-0 0  9995","2  5709 013.9861 332.5253 0009612 353.7258 169.4917 00.99617670080904","1971-116A","5709","42349.106","1445.526","36011.677","35930.265"
"GENERATED VIA SPACETRACK.ORG API","JSPOC","13027","COSMOS 1331","PAYLOAD","U","82001A","2016-01-09 22:17:52","575936","14.36539051","0.0023208","74.0492","317.525","127.5964","293.2355","0","999","78016","1.9535e-05","3.2e-07","0","1978726","0 COSMOS 1331","1 13027U 82001A   16009.92908074 +.00000032 +00000-0 +19535-4 0  9991","2 13027 074.0492 317.5250 0023208 127.5964 293.2355 14.36539051780161","1982-001A","13027","7148.093","100.240","786.547","753.369"
"GENERATED VIA SPACETRACK.ORG API","JSPOC","28254","ROCSAT 2","PAYLOAD","U","04018A","2016-01-09 22:17:53","279232","14.00766607","0.0003004","98.9651","76.4865","132.8642","312.9952","0","999","59520","0.0001","1.06e-06","0","1978726","0 ROCSAT 2","1 28254U 04018A   16009.92908888 +.00000106 +00000-0 +10000-3 0  9993","2 28254 098.9651 076.4865 0003004 132.8642 312.9952 14.00766607595209","2004-018A","28254","7269.278","102.800","893.327","888.960"
"GENERATED VIA SPACETRACK.ORG API","JSPOC","25274","IRIDIUM 58","PAYLOAD","U","98019C","2016-01-09 22:17:57","739200","14.34216048","0.0001894","86.3994","146.6602","93.958","266.1832","0","999","93071","5.8163e-05","1.83e-06","0","1978726","0 IRIDIUM 58","1 25274U 98019C   16009.92914050 +.00000183 +00000-0 +58163-4 0  9992","2 25274 086.3994 146.6602 0001894 093.9580 266.1832 14.34216048930713","1998-019C","25274","7155.809","100.403","779.030","776.319"
"GENERATED VIA SPACETRACK.ORG API","JSPOC","25394","RESURS O1-N4","PAYLOAD","U","98043A","2016-01-09 22:18:04","260672","14.24466659","0.0002216","98.495","322.8468","56.0672","344.8249","0","999","90969","8.801e-06","-2.2e-07","0","1978726","0 RESURS O1-N4","1 25394U 98043A   16009.92921598 -.00000022 +00000-0 +88010-5 0  9995","2 25394 098.4950 322.8468 0002216 056.0672 344.8249 14.24466659909694","1998-043A","25394","7188.423","101.090","811.881","808.695"
"GENERATED VIA SPACETRACK.ORG API","JSPOC","23465","FAISAT","PAYLOAD","U","95002C","2016-01-09 22:18:16","339392","13.7186288","0.0036359","82.9289","317.9195","302.134","118.2397","0","999","4934","6.9868e-06","2.1e-07","0","1978726","0 FAISAT","1 23465U 95002C   16009.92935578 +.00000021 +00000-0 +69868-5 0  9995","2 23465 082.9289 317.9195 0036359 302.1340 118.2397 13.71862880049349","1995-002C","23465","7371.027","104.966","1019.692","966.092"
"GENERATED VIA SPACETRACK.ORG API","JSPOC","39159","PROBA V","PAYLOAD","U","13021A","2016-01-09 22:18:17","745120","14.22908308","0.0005185","98.6472","90.9237","91.7135","268.4623","0","999","13904","1.3876e-05","-1.2e-07","0","1978726","0 PROBA V","1 39159U 13021A   16009.92937205 -.00000012 +00000-0 +13876-4 0  9990","2 39159 098.6472 090.9237 0005185 091.7135 268.4623 14.22908308139045","2013-021A","39159","7193.670","101.201","819.265","811.805"
"GENERATED VIA SPACETRACK.ORG API","JSPOC","9057","NOAA 5","PAYLOAD","U","76077A","2016-01-09 22:18:23","636736","12.3777223","0.0009609","101.7747","4.1639","186.7846","227.2996","0","999","78291","-6.55e-05","-5.2e-07","0","1978726","0 NOAA 5","1  9057U 76077A   16009.92944024 -.00000052 +00000-0 -65500-4 0  9997","2  9057 101.7747 004.1639 0009609 186.7846 227.2996 12.37772230782915","1976-077A","9057","7894.198","116.338","1523.648","1508.477"
"GENERATED VIA SPACETRACK.ORG API","JSPOC","9662","SL-3 R/B","ROCKET BODY","U","77002B","2016-01-09 22:18:23","750784","14.00873179","0.0053281","81.2733","214.4729","94.6701","266.0553","0","999","99295","5.5755e-06","2.1e-07","0","1978726","0 SL-3 R/B","1  9662U 77002B   16009.92944156 +.00000021 +00000-0 +55755-5 0  9990","2  9662 081.2733 214.4729 0053281 094.6701 266.0553 14.00873179992955","1977-002B","9662","7268.910","102.793","929.504","852.045"
"GENERATED VIA SPACETRACK.ORG API","JSPOC","2413","SCOUT A R/B","ROCKET BODY","U","66076B","2016-01-09 22:18:30","871872","13.51433102","0.0030642","88.8669","151.1914","287.8307","189.5515","0","999","43391","6.4066e-05","5.4e-07","0","1978726","0 SCOUT A R/B","1  2413U 66076B   16009.92952398 +.00000054 +00000-0 +64066-4 0  9993","2  2413 088.8669 151.1914 0030642 287.8307 189.5515 13.51433102433916","1966-076B","2413","7445.127","106.553","1089.805","1044.179"
"GENERATED VIA SPACETRACK.ORG API","JSPOC","16728","SL-8 R/B","ROCKET BODY","U","86037B","2016-01-09 22:18:30","751776","13.76653536","0.0029763","82.9538","6.4014","230.3955","192.0256","0","999","48818","-5.18e-05","-3.6e-07","0","1978726","0 SL-8 R/B","1 16728U 86037B   16009.92952259 -.00000036 +00000-0 -51800-4 0  9996","2 16728 082.9538 006.4014 0029763 230.3955 192.0256 13.76653536488189","1986-037B","16728","7353.917","104.601","997.669","953.894"
"GENERATED VIA SPACETRACK.ORG API","JSPOC","28810","INDEX","PAYLOAD","U","05031B","2016-01-09 22:18:33","921792","14.89315161","0.0030036","98.0797","330.1496","99.4845","260.9769","0","999","56202","9.296e-05","8.29e-06","0","1978726","0 INDEX","1 28810U 05031B   16009.92955928 +.00000829 +00000-0 +92960-4 0  9992","2 28810 098.0797 330.1496 0030036 099.4845 260.9769 14.89315161562021","2005-031B","28810","6978.211","96.688","621.035","579.116"
"GENERATED VIA SPACETRACK.ORG API","JSPOC","28656","BREEZE-M R/B","ROCKET BODY","U","04008C","2016-01-09 22:18:35","629920","1.97319355","0.6107665","11.9535","178.2183","274.2423","12.5354","0","999","7901","0","-1.65e-06","0","1978726","0 BREEZE-M R/B","1 28656U 04008C   16009.92957905 -.00000165 +00000-0 +00000-0 0  9994","2 28656 011.9535 178.2183 6107665 274.2423 012.5354 01.97319355079018","2004-008C","28656","26850.685","729.781","36872.050","4073.051"
"GENERATED VIA SPACETRACK.ORG API","JSPOC","37794","SICH 2","PAYLOAD","U","11044G","2016-01-09 22:18:36","72288","14.61512639","0.0011885","98.1223","91.1136","316.535","43.4912","0","999","23452","4.5229e-05","1.78e-06","0","1978726","0 SICH 2","1 37794U 11044G   16009.92958417 +.00000178 +00000-0 +45229-4 0  9993","2 37794 098.1223 091.1136 0011885 316.5350 043.4912 14.61512639234521","2011-044G","37794","7066.431","98.528","696.694","679.897"
"GENERATED VIA SPACETRACK.ORG API","JSPOC","15621","COSMOS 1639","PAYLOAD","U","85023E","2016-01-09 22:18:38","784384","12.51003024","0.0024208","74.0562","354.0522","65.8218","322.8662","0","999","40687","-6.8374e-05","-2.6e-07","0","1978726","0 COSMOS 1639","1 15621U 85023E   16009.92961556 -.00000026 +00000-0 -68374-4 0  9994","2 15621 074.0562 354.0522 0024208 065.8218 322.8662 12.51003024406870","1985-023E","15621","7838.439","115.107","1479.279","1441.329"
